{"type": "FeatureCollection", "features": [{"type": "Feature", "id": "vw_aprovechamiento_comun.fid-183f98ad_1a0855c4db3_-2031", "geometry": {"type": "Polygon", "coordinates": [[[-68.5547, -31.5801], [-68.5534, -31.5805], [-68.5542, -31.5823], [-68.5555, -31.5819], [-68.5547, -31.5801]]]}, "geometry_name": "geom", "properties": {"ac_id": 1, "expte_siged": "1124-000265-1996-EXP", "sup_reg_ha": 2.9551}, "bbox": [-68.5555, -31.5823, -68.5534, -31.5801]}, {"type": "Feature", "id": "vw_aprovechamiento_comun.fid-183f98ad_1a0855c4db3_-2030", "geometry": {"type": "Polygon", "coordinates": [[[-67.3405, -31.3878], [-67.3395, -31.3878], [-67.3395, -31.3884], [-67.3405, -31.3884], [-67.3405, -31.3878]]]}, "geometry_name": "geom", "properties": {"ac_id": 3, "expte_siged": "1124-000312-2014-EXP", "sup_reg_ha": 0.6667}, "bbox": [-67.3405, -31.3884, -67.3395, -31.3878]}, {"type": "Feature", "id": "vw_aprovechamiento_comun.fid-183f98ad_1a0855c4db3_-202f", "geometry": {"type": "Polygon", "coordinates": [[[-67.3407, -31.3886], [-67.34, -31.3886], [-67.3399, -31.3892], [-67.3407, -31.3892], [-67.3407, -31.3886]]]}, "geometry_name": "geom", "properties": {"ac_id": 4, "expte_siged": "1124-000312-2014-EXP", "sup_reg_ha": 0.4724}, "bbox": [-67.3407, -31.3892, -67.3399, -31.3886]}, {"type": "Feature", "id": "vw_aprovechamiento_comun.fid-183f98ad_1a0855c4db3_-202e", "geometry": {"type": "Polygon", "coordinates": [[[-67.3384, -31.3919], [-67.3365, -31.3919], [-67.3365, -31.3928], [-67.3384, -31.3928], [-67.3384, -31.3919]]]}, "geometry_name": "geom", "properties": {"ac_id": 5, "expte_siged": "1124-000312-2014-EXP", "sup_reg_ha": 1.7324}, "bbox": [-67.3384, -31.3928, -67.3365, -31.3919]}, {"type": "Feature", "id": "vw_aprovechamiento_comun.fid-183f98ad_1a0855c4db3_-202d", "geometry": {"type": "Polygon", "coordinates": [[[-67.3352, -31.4019], [-67.3341, -31.4018], [-67.3341, -31.4026], [-67.3351, -31.4026], [-67.3352, -31.4019]]]}, "geometry_name": "geom", "properties": {"ac_id": 6, "expte_siged": "1124-000312-2014-EXP", "sup_reg_ha": 0.8035}, "bbox": [-67.3352, -31.4026, -67.3341, -31.4018]}, {"type": "Feature", "id": "vw_aprovechamiento_comun.fid-183f98ad_1a0855c4db3_-202c", "geometry": {"type": "Polygon", "coordinates": [[[-67.3315, -31.4025], [-67.3304, -31.4024], [-67.3303, -31.4042], [-67.3314, -31.4042], [-67.3315, -31.4025]]]}, "geometry_name": "geom", "properties": {"ac_id": 7, "expte_siged": "1124-000312-2014-EXP", "sup_reg_ha": 1.9916}, "bbox": [-67.3315, -31.4042, -67.3303, -31.4024]}, {"type": "Feature", "id": "vw_aprovechamiento_comun.fid-183f98ad_1a0855c4db3_-202b", "geometry": {"type": "Polygon", "coordinates": [[[-68.856, -29.9104], [-68.8519, -29.9109], [-68.8523, -29.9136], [-68.8564, -29.9131], [-68.856, -29.9104]]]}, "geometry_name": "geom", "properties": {"ac_id": 8, "expte_siged": "414-000809-2005-EXP", "sup_reg_ha": 12.2334}, "bbox": [-68.8564, -29.9136, -68.8519, -29.9104]}, {"type": "Feature", "id": "vw_aprovechamiento_comun.fid-183f98ad_1a0855c4db3_-202a", "geometry": {"type": "Polygon", "coordinates": [[[-68.8585, -29.9128], [-68.8564, -29.9131], [-68.8569, -29.9157], [-68.8573, -29.9183], [-68.8594, -29.918], [-68.8589, -29.9153], [-68.8585, -29.9128]]]}, "geometry_name": "geom", "properties": {"ac_id": 9, "expte_siged": "414-000807-2005-EXP", "sup_reg_ha": 11.8732}, "bbox": [-68.8594, -29.9183, -68.8564, -29.9128]}, {"type": "Feature", "id": "vw_aprovechamiento_comun.fid-183f98ad_1a0855c4db3_-2029", "geometry": {"type": "Polygon", "coordinates": [[[-68.956, -30.7357], [-68.9533, -30.7361], [-68.9535, -30.7374], [-68.9565, -30.7369], [-68.956, -30.7357]]]}, "geometry_name": "geom", "properties": {"ac_id": 11, "expte_siged": "1124-000264-2016-EXP", "sup_reg_ha": 3.9366}, "bbox": [-68.9565, -30.7374, -68.9533, -30.7357]}, {"type": "Feature", "id": "vw_aprovechamiento_comun.fid-183f98ad_1a0855c4db3_-2028", "geometry": {"type": "Polygon", "coordinates": [[[-69.2292, -31.592], [-69.2268, -31.592], [-69.2268, -31.5934], [-69.2292, -31.5934], [-69.2292, -31.592]]]}, "geometry_name": "geom", "properties": {"ac_id": 13, "expte_siged": "1124-000535-2023-EXP", "sup_reg_ha": 3.435}, "bbox": [-69.2292, -31.5934, -69.2268, -31.592]}, {"type": "Feature", "id": "vw_aprovechamiento_comun.fid-183f98ad_1a0855c4db3_-2027", "geometry": {"type": "Polygon", "coordinates": [[[-69.2246, -31.6117], [-69.223, -31.6117], [-69.223, -31.6136], [-69.2247, -31.6136], [-69.2246, -31.6117]]]}, "geometry_name": "geom", "properties": {"ac_id": 14, "expte_siged": "1124-000536-2023-EXP", "sup_reg_ha": 3.424}, "bbox": [-69.2247, -31.6136, -69.223, -31.6117]}, {"type": "Feature", "id": "vw_aprovechamiento_comun.fid-183f98ad_1a0855c4db3_-2026", "geometry": {"type": "Polygon", "coordinates": [[[-69.2272, -31.6012], [-69.2251, -31.6012], [-69.2251, -31.6035], [-69.2272, -31.6035], [-69.2272, -31.6012]]]}, "geometry_name": "geom", "properties": {"ac_id": 15, "expte_siged": "1124-000537-2023-EXP", "sup_reg_ha": 5.16}, "bbox": [-69.2272, -31.6035, -69.2251, -31.6012]}, {"type": "Feature", "id": "vw_aprovechamiento_comun.fid-183f98ad_1a0855c4db3_-2025", "geometry": {"type": "Polygon", "coordinates": [[[-68.542, -31.5037], [-68.5414, -31.5037], [-68.5414, -31.504], [-68.5408, -31.504], [-68.5408, -31.505], [-68.542, -31.505], [-68.542, -31.5037]]]}, "geometry_name": "geom", "properties": {"ac_id": 16, "expte_siged": "1124-000272-2022-EXP", "sup_reg_ha": 1.416}, "bbox": [-68.542, -31.505, -68.5408, -31.5037]}, {"type": "Feature", "id": "vw_aprovechamiento_comun.fid-183f98ad_1a0855c4db3_-2024", "geometry": {"type": "Polygon", "coordinates": [[[-69.4002, -31.4682], [-69.3987, -31.4682], [-69.3988, -31.4696], [-69.4002, -31.4696], [-69.4002, -31.4682]]]}, "geometry_name": "geom", "properties": {"ac_id": 17, "expte_siged": "1124-000534-2023-EXP", "sup_reg_ha": 2.1216}, "bbox": [-69.4002, -31.4696, -69.3987, -31.4682]}, {"type": "Feature", "id": "vw_aprovechamiento_comun.fid-183f98ad_1a0855c4db3_-2023", "geometry": {"type": "Polygon", "coordinates": [[[-67.304, -31.4737], [-67.3018, -31.4734], [-67.3016, -31.476], [-67.3035, -31.4763], [-67.304, -31.4737]]]}, "geometry_name": "geom", "properties": {"ac_id": 18, "expte_siged": "1124-000613-2023-EXP-MANIF", "sup_reg_ha": 5.8252}, "bbox": [-67.304, -31.4763, -67.3016, -31.4734]}, {"type": "Feature", "id": "vw_aprovechamiento_comun.fid-183f98ad_1a0855c4db3_-2022", "geometry": {"type": "Polygon", "coordinates": [[[-69.6129, -30.9373], [-69.6097, -30.9373], [-69.6097, -30.9391], [-69.6129, -30.9391], [-69.6129, -30.9373]]]}, "geometry_name": "geom", "properties": {"ac_id": 19, "expte_siged": "1124-000025-2024-EXP", "sup_reg_ha": 6}, "bbox": [-69.6129, -30.9391, -69.6097, -30.9373]}, {"type": "Feature", "id": "vw_aprovechamiento_comun.fid-183f98ad_1a0855c4db3_-2021", "geometry": {"type": "Polygon", "coordinates": [[[-69.593, -30.9365], [-69.5899, -30.9365], [-69.5899, -30.9383], [-69.5931, -30.9383], [-69.593, -30.9365]]]}, "geometry_name": "geom", "properties": {"ac_id": 20, "expte_siged": "1124-000024-2024-EXP", "sup_reg_ha": 6}, "bbox": [-69.5931, -30.9383, -69.5899, -30.9365]}, {"type": "Feature", "id": "vw_aprovechamiento_comun.fid-183f98ad_1a0855c4db3_-2020", "geometry": {"type": "Polygon", "coordinates": [[[-69.4099, -31.334], [-69.4078, -31.334], [-69.4079, -31.3367], [-69.41, -31.3367], [-69.4099, -31.334]]]}, "geometry_name": "geom", "properties": {"ac_id": 21, "expte_siged": "1124-000533-2023-EXP", "sup_reg_ha": 6}, "bbox": [-69.41, -31.3367, -69.4078, -31.334]}, {"type": "Feature", "id": "vw_aprovechamiento_comun.fid-183f98ad_1a0855c4db3_-201f", "geometry": {"type": "Polygon", "coordinates": [[[-69.6392, -30.942], [-69.6361, -30.942], [-69.6361, -30.9438], [-69.6393, -30.9438], [-69.6392, -30.942]]]}, "geometry_name": "geom", "properties": {"ac_id": 22, "expte_siged": "1124-000538-2023-EXP", "sup_reg_ha": 6}, "bbox": [-69.6393, -30.9438, -69.6361, -30.942]}, {"type": "Feature", "id": "vw_aprovechamiento_comun.fid-183f98ad_1a0855c4db3_-201e", "geometry": {"type": "Polygon", "coordinates": [[[-67.3074, -31.4732], [-67.3042, -31.4728], [-67.3039, -31.4745], [-67.307, -31.475], [-67.3074, -31.4732]]]}, "geometry_name": "geom", "properties": {"ac_id": 23, "expte_siged": "1124-000031-2024-EXP", "sup_reg_ha": 6.0455}, "bbox": [-67.3074, -31.475, -67.3039, -31.4728]}, {"type": "Feature", "id": "vw_aprovechamiento_comun.fid-183f98ad_1a0855c4db3_-201d", "geometry": {"type": "Polygon", "coordinates": [[[-67.3066, -31.4768], [-67.3035, -31.4763], [-67.3031, -31.4781], [-67.3063, -31.4786], [-67.3066, -31.4768]]]}, "geometry_name": "geom", "properties": {"ac_id": 24, "expte_siged": "1124-000030-2024-EXP", "sup_reg_ha": 6.0455}, "bbox": [-67.3066, -31.4786, -67.3031, -31.4763]}, {"type": "Feature", "id": "vw_aprovechamiento_comun.fid-183f98ad_1a0855c4db3_-201c", "geometry": {"type": "Polygon", "coordinates": [[[-67.3086, -31.4776], [-67.3092, -31.4749], [-67.3071, -31.4746], [-67.3065, -31.4773], [-67.3086, -31.4776]]]}, "geometry_name": "geom", "properties": {"ac_id": 25, "expte_siged": "1124-000032-2024-EXP", "sup_reg_ha": 6.0456}, "bbox": [-67.3092, -31.4776, -67.3065, -31.4746]}, {"type": "Feature", "id": "vw_aprovechamiento_comun.fid-183f98ad_1a0855c4db3_-201b", "geometry": {"type": "Polygon", "coordinates": [[[-68.9508, -30.7168], [-68.9492, -30.7175], [-68.9508, -30.7204], [-68.9524, -30.7197], [-68.9508, -30.7168]]]}, "geometry_name": "geom", "properties": {"ac_id": 12, "expte_siged": "1124-000419-2021-EXP-MANIF", "sup_reg_ha": 9.8222}, "bbox": [-68.9524, -30.7204, -68.9492, -30.7168]}, {"type": "Feature", "id": "vw_aprovechamiento_comun.fid-183f98ad_1a0855c4db3_-201a", "geometry": {"type": "Polygon", "coordinates": [[[-68.8542, -29.9184], [-68.8532, -29.9186], [-68.8531, -29.9213], [-68.8527, -29.9214], [-68.8532, -29.924], [-68.8542, -29.9239], [-68.8537, -29.9211], [-68.8542, -29.9211], [-68.8542, -29.9184]]]}, "geometry_name": "geom", "properties": {"ac_id": 2, "expte_siged": "520-001055-1997-EXP", "sup_reg_ha": 6.1664}, "bbox": [-68.8542, -29.924, -68.8527, -29.9184]}], "totalFeatures": 24, "numberMatched": 24, "numberReturned": 24, "timeStamp": "2026-09-09T10:15:45.999Z", "crs": {"type": "name", "properties": {"name": "urn:ogc:def:crs:EPSG::4326"}}, "bbox": [-69.6393, -31.6136, -67.3016, -29.9104]}